2025-131D               
1 64527U 25131D   25199.66015918 -.00000299  00000+0  00000+0 0  9997
2 64527   0.9827 280.8851 3655087 173.8398 181.2862  1.00266848   280
2025-135A               
1 64528U 25135A   25198.28773899  .00005293  00000+0  27187-3 0  9995
2 64528  97.4398 312.3947 0004264 273.2719  86.8026 15.16909095  3999
2025-135B               
1 64529U 25135B   25198.28767368  .00003963  00000+0  20462-3 0  9991
2 64529  97.4497 312.4230 0003971 252.7344 107.3455 15.16875990  3997
2025-135C               
1 64530U 25135C   25198.28629535  .00007297  00000+0  37190-3 0  9996
2 64530  97.4392 312.3952 0004108 274.4856  85.5908 15.17056372  3991
2025-135D               
1 64531U 25135D   25198.28628352  .00006713  00000+0  34268-3 0  9998
2 64531  97.4486 312.4213 0004060 250.1441 109.9355 15.17033146  3996
2025-135E               
1 64532U 25135E   25198.55007386  .00006765  00000+0  34523-3 0  9998
2 64532  97.4485 312.6807 0004093 248.4876 111.5921 15.17040112  4030
2025-135F               
1 64533U 25135F   25198.74807923  .00006252  00000+0  31952-3 0  9999
2 64533  97.4442 312.8625 0003945 260.1128  99.9660 15.17018134  4061
2025-135G               
1 64534U 25135G   25198.28622589  .00002089  00000+0  10926-3 0  9994
2 64534  97.4521 312.4308 0003794 241.6611 118.4240 15.16942189  3994
2025-135H               
1 64535U 25135H   25198.54966420  .00004331  00000+0  22244-3 0  9997
2 64535  97.4434 312.6665 0003501 261.7267  98.3569 15.17012548  4036
2025-135J               
1 64536U 25135J   25198.28429626  .00002054  00000+0  10711-3 0  9997
2 64536  97.4421 312.4047 0002741 275.5191  84.5730 15.17065918  3999
2025-135K               
1 64537U 25135K   25198.74330556  .00004956  00000+0  25178-3 0  9998
2 64537  97.4451 312.8713 0002531 260.9008  99.1939 15.17333448  4067
2025-135L               
1 64538U 25135L   25198.28202937  .00002524  00000+0  13030-3 0  9992
2 64538  97.4458 312.4182 0002162 259.9368 100.1622 15.17219937  3997
2025-135M               
1 64539U 25135M   25198.74212117  .00006037  00000+0  30543-3 0  9996
2 64539  97.4483 312.8828 0002372 248.0854 112.0128 15.17392056  4065
2025-135N               
1 64540U 25135N   25198.74074517  .00011279  00000+0  56431-3 0  9996
2 64540  97.4412 312.8638 0002475 274.7881  85.3070 15.17578340  4068
2025-135P               
1 64541U 25135P   25198.28108896  .00002411  00000+0  12442-3 0  9996
2 64541  97.4451 312.4170 0001641 268.9480  91.1566 15.17276909  3995
2025-135Q               
1 64542U 25135Q   25198.28031621  .00006105  00000+0  30893-3 0  9992
2 64542  97.4474 312.4267 0001855 258.5995 101.5030 15.17377658  3996
2025-135R               
1 64543U 25135R   25198.73641076  .00003275  00000+0  16583-3 0  9999
2 64543  97.4480 312.8882 0000864 188.5500 171.5719 15.17698256  4064
2025-135S               
1 64544U 25135S   25198.27372055  .00002196  00000+0  11211-3 0  9991
2 64544  97.4479 312.4355 0001120 163.1459 196.9812 15.17748721  3991
2025-135T               
1 64545U 25135T   25198.27346996  .00002525  00000+0  12835-3 0  9996
2 64545  97.4464 312.4311 0000719 144.7431 215.3850 15.17772346  3994
2025-135U               
1 64546U 25135U   25198.27193307  .00005178  00000+0  25851-3 0  9992
2 64546  97.4446 312.4282 0000596 123.5147 236.6144 15.17926554  3998
2025-135V               
1 64547U 25135V   25198.27055865  .00005955  00000+0  29591-3 0  9997
2 64547  97.4387 312.4124 0001038  64.4763 295.6578 15.18029555  3999
2025-135W               
1 64548U 25135W   25198.66555206  .00003574  00000+0  17891-3 0  9990
2 64548  97.4521 312.8417 0001796 138.8471 221.2898 15.18039178  4052
2025-135X               
1 64549U 25135X   25198.59950561  .00004991  00000+0  24836-3 0  9997
2 64549  97.4538 312.7820 0002093 147.8318 212.3044 15.18055654  4050
2025-135Y               
1 64550U 25135Y   25198.86178330  .00004727  00000+0  23482-3 0  9998
2 64550  97.4384 313.0014 0001438  54.8715 305.2653 15.18146387  4085
2025-135Z               
1 64551U 25135Z   25198.86161137  .00005945  00000+0  29419-3 0  9995
2 64551  97.4385 312.9998 0001547  53.4769 306.6607 15.18170970  4080
2025-135AA              
1 64552U 25135AA  25198.85978656  .00003933  00000+0  19536-3 0  9991
2 64552  97.4416 313.0110 0002179  71.9062 288.2410 15.18247532  4083
2025-135AB              
1 64553U 25135AB  25198.26603555  .00002829  00000+0  14139-3 0  9997
2 64553  97.4509 312.4534 0002575 110.6783 249.4727 15.18265478  3999
2025-135AC              
1 64554U 25135AC  25198.26473634  .00006180  00000+0  30358-3 0  9996
2 64554  97.4418 312.4308 0002335  67.3823 292.7658 15.18411708  3998
2025-135AD              
1 64555U 25135AD  25198.26517760  .00002480  00000+0  12418-3 0  9992
2 64555  97.4442 312.4360 0002492  78.8382 281.3132 15.18315559  3993
2025-135AE              
1 64556U 25135AE  25198.26411890  .00006169  00000+0  30267-3 0  9990
2 64556  97.4501 312.4558 0003076 130.5012 229.6490 15.18453800  3998
2025-135AF              
1 64557U 25135AF  25198.26407669  .00002915  00000+0  14508-3 0  9995
2 64557  97.4477 312.4473 0002980  92.6644 267.4931 15.18389407  3990
2025-135AG              
1 64558U 25135AG  25198.28946083  .00007480  00000+0  38341-3 0  9999
2 64558  97.4507 312.4232 0005107 245.0048 115.0655 15.16842184  3999
2025-135AH              
1 64559U 25135AH  25198.28869342  .00000603  00000+0  66588-4 0  9997
2 64559  97.7473 312.2615 0000649 334.3528  25.7658 14.90963301  3928
2025-135AJ              
1 64560U 25135AJ  25198.28659926  .00003094  00000+0  31729-3 0  9999
2 64560  97.7501 312.2646 0000870  87.5929 272.5389 14.91158603  3929
2025-135AK              
1 64561U 25135AK  25198.28657665  .00003431  00000+0  35112-3 0  9993
2 64561  97.7512 312.2645 0001640 103.2493 256.8908 14.91164504  3928
2025-135AM              
1 64563U 25135AM  25198.28582541  .00004156  00000+0  42350-3 0  9992
2 64563  97.7459 312.2639 0001442 333.8583  26.2563 14.91224058  3921
2025-135AN              
1 64564U 25135AN  25198.62043886  .00003286  00000+0  33569-3 0  9990
2 64564  97.7474 312.5949 0001145   1.0594 359.0627 14.91270314  3971
2025-135AP              
1 64565U 25135AP  25198.75366684  .00001743  00000+0  18050-3 0  9993
2 64565  97.7458 312.7253 0001798 347.3545  12.7628 14.91320979  3999
2025-135AQ              
1 64566U 25135AQ  25198.75281679  .00001646  00000+0  17068-3 0  9994
2 64566  97.7485 312.7293 0001694  29.8511 330.2803 14.91343032  3992
2025-135AS              
1 64568U 25135AS  25198.28233575  .00001513  00000+0  15708-3 0  9998
2 64568  97.7479 312.2683 0002037  25.7733 334.3586 14.91390614  3922
2025-135AT              
1 64569U 25135AT  25198.28191591  .00001519  00000+0  15758-3 0  9991
2 64569  97.7501 312.2713 0002111  48.5841 311.5559 14.91417617  3929
2025-135AU              
1 64570U 25135AU  25198.28125617  .00002052  00000+0  21068-3 0  9993
2 64570  97.7482 312.2704 0002190  28.8184 331.3156 14.91477057  3924
2025-135AV              
1 64571U 25135AV  25198.75072683  .00001519  00000+0  15742-3 0  9999
2 64571  97.7477 312.7305 0002433  23.0942 337.0385 14.91471400  3990
2025-135AW              
1 64572U 25135AW  25198.28046903  .00001526  00000+0  15791-3 0  9996
2 64572  97.7498 312.2733 0002425  40.9671 319.1729 14.91512468  3928
2025-135AX              
1 64573U 25135AX  25198.75015763  .00001147  00000+0  12009-3 0  9997
2 64573  97.7481 312.7320 0002533  24.8585 335.2755 14.91501937  3997
2025-135AY              
1 64574U 25135AY  25198.27938879  .00002429  00000+0  24755-3 0  9992
2 64574  97.7502 312.2756 0002623  44.7929 315.3501 14.91598572  3925
2025-135AZ              
1 64575U 25135AZ  25198.29205728 -.00000183  00000+0 -13636-4 0  9999
2 64575  97.7508 312.2614 0010033  20.4662 339.6956 14.89030585  3929
2025-135BA              
1 64576U 25135BA  25198.27884018  .00001582  00000+0  16316-3 0  9992
2 64576  97.7469 312.2703 0003214  25.8582 334.2797 14.91614917  3922
2025-135BB              
1 64577U 25135BB  25198.75566192 -.00349177  00000+0 -39769-1 0  9998
2 64577  97.7478 312.7309 0012401 293.0065  66.9844 14.88171002  3991
2025-135BE              
1 64580U 25135BE  25198.27732018  .00001656  00000+0  17028-3 0  9992
2 64580  97.7483 312.2749 0004321  44.9810 315.1758 14.91655614  3923
STARLINK-34280          
1 64594U 25137A   25199.91668981 -.01464933  00000+0 -16265-1 0  9992
2 64594  53.1594 353.6890 0000969  85.9974 357.0837 15.65102420  4763
STARLINK-34517          
1 64595U 25137B   25199.91668981 -.01464856  00000+0 -16264-1 0  9996
2 64595  53.1591 353.6847 0000968  89.3807 355.6165 15.65102506  4768
STARLINK-34510          
1 64596U 25137C   25199.91668981 -.01461826  00000+0 -16228-1 0  9991
2 64596  53.1589 353.6816 0001058  75.3761  11.5402 15.65099414  4762
STARLINK-34486          
1 64597U 25137D   25199.91668981 -.01405173  00000+0 -15572-1 0  9996
2 64597  53.1591 353.6763 0001041  69.9722  18.9225 15.65033058  4761
STARLINK-34463          
1 64598U 25137E   25199.90061934  .00170450  00000+0  16415-2 0  9993
2 64598  53.1591 353.7493 0001732 351.7306   8.3681 15.65492494  4762
STARLINK-34294          
1 64599U 25137F   25199.90026816 -.00293193  00000+0 -29579-2 0  9991
2 64599  53.1593 353.7470 0001606 342.2969  17.7991 15.65610630  4762
STARLINK-34504          
1 64600U 25137G   25199.83336806 -.01464237  00000+0 -16078-1 0  9998
2 64600  53.1595 354.0725 0001295 103.5290 241.2716 15.65373418  4740
STARLINK-34508          
1 64601U 25137H   25199.89959891  .00138374  00000+0  13389-2 0  9990
2 64601  53.1600 353.7429 0001797 344.8555  15.2407 15.65491749  4762
STARLINK-34435          
1 64602U 25137J   25199.89924132  .00238327  00000+0  21569-2 0  9999
2 64602  53.1592 353.7397 0009925  29.7939 330.3641 15.66761911  4766
